NORAD_CAT_ID,OBJECT_NAME,OBJECT_TYPE,EPOCH,MEAN_MOTION,ECCENTRICITY,INCLINATION,RA_OF_ASC_NODE,ARG_OF_PERICENTER,MEAN_ANOMALY,BSTAR,MEAN_MOTION_DOT,MEAN_MOTION_DDOT,TLE_LINE0,TLE_LINE1,TLE_LINE2,SEMIMAJOR_AXIS,PERIOD,APOGEE,PERIGEE,DECAYED
54063.0,STARLINK-5225,PAYLOAD,2024-05-10 07:39:02,15.08841659,0.0001315,53.2159,104.4812,93.9407,266.1736,0.00013671,1.889e-05,0.0,0 STARLINK-5225,1 54063U 22136N   24131.31877364  .00001889  00000-0  13671-3 0  9999,2 54063  53.2159 104.4812 0001315  93.9407 266.1736 15.08841659 85941,6917.875,95.437,540.65,538.831,0.0
54063.0,STARLINK-5225,PAYLOAD,2024-05-11 04:19:02,15.08853738,0.0001798,53.2164,100.6164,67.12,292.9982,9.6981e-05,1.256e-05,0.0,0 STARLINK-5225,1 54063U 22136N   24132.17988987  .00001256  00000-0  96981-4 0  9992,2 54063  53.2164 100.6164 0001798  67.1200 292.9982 15.08853738 86553,6917.838,95.437,540.947,538.46,0.0
54063.0,STARLINK-5225,PAYLOAD,2024-05-11 15:26:42,15.08883263,0.0001408,53.217,98.5344,67.1735,292.9406,0.00057635,8.907e-05,0.0,0 STARLINK-5225,1 54063U 22136N   24132.64354816  .00008907  00000-0  57635-3 0  9994,2 54063  53.2170  98.5344 0001408  67.1735 292.9406 15.08883263 86621,6917.748,95.435,540.587,538.639,0.0
54063.0,STARLINK-5225,PAYLOAD,2024-05-12 04:09:51,15.08772077,0.0001786,53.2162,96.1553,53.0215,307.0941,-0.001366,-0.00021922,0.0,0 STARLINK-5225,1 54063U 22136N   24133.17351412 -.00021922  00000-0 -13660-2 0  9995,2 54063  53.2162  96.1553 0001786  53.0215 307.0941 15.08772077 86705,6918.088,95.442,541.189,538.717,0.0
54063.0,STARLINK-5225,PAYLOAD,2024-05-13 04:00:39,15.08831472,0.0001511,53.2172,91.6975,79.6452,280.471,0.0001494,2.09e-05,0.0,0 STARLINK-5225,1 54063U 22136N   24134.16712055  .00002090  00000-0  14940-3 0  9995,2 54063  53.2172  91.6975 0001511  79.6452 280.4710 15.08831472 86856,6917.906,95.438,540.817,538.726,0.0
54063.0,STARLINK-5225,PAYLOAD,2024-05-13 13:32:58,15.08835304,0.0001641,53.2187,89.9126,90.6684,269.4496,0.00044142,6.743e-05,0.0,0 STARLINK-5225,1 54063U 22136N   24134.56456460  .00006743  00000-0  44142-3 0  9990,2 54063  53.2187  89.9126 0001641  90.6684 269.4496 15.08835304 86434,6917.895,95.438,540.895,538.625,0.0
54063.0,STARLINK-5225,PAYLOAD,2024-05-14 02:16:03,15.08843258,0.0001408,53.2163,87.5333,87.0552,273.0601,0.00069253,0.00010752,0.0,0 STARLINK-5225,1 54063U 22136N   24135.09448187  .00010752  00000-0  69253-3 0  9991,2 54063  53.2163  87.5333 0001408  87.0552 273.0601 15.08843258 86994,6917.87,95.437,540.709,538.761,0.0
54063.0,STARLINK-5225,PAYLOAD,2024-05-14 13:23:44,15.08862917,0.0001656,53.2168,85.4522,71.2548,288.8624,0.00084645,0.00013217,0.0,0 STARLINK-5225,1 54063U 22136N   24135.55815606  .00013217  00000-0  84645-3 0  9997,2 54063  53.2168  85.4522 0001656  71.2548 288.8624 15.08862917 86588,6917.81,95.436,540.821,538.53,0.0
54063.0,STARLINK-5225,PAYLOAD,2024-05-15 03:42:11,15.08866696,0.0001311,53.2167,82.7756,88.3488,271.7655,0.00021654,3.162e-05,0.0,0 STARLINK-5225,1 54063U 22136N   24136.15430333  .00003162  00000-0  21654-3 0  9993,2 54063  53.2167  82.7756 0001311  88.3488 271.7655 15.08866696 87153,6917.799,95.436,540.571,538.757,0.0
54063.0,STARLINK-5225,PAYLOAD,2024-05-16 05:08:21,15.08861211,0.000144,53.2163,78.0153,76.9491,283.1662,7.0336e-05,8.32e-06,0.0,0 STARLINK-5225,1 54063U 22136N   24137.21413417  .00000832  00000-0  70336-4 0  9998,2 54063  53.2163  78.0153 0001440  76.9491 283.1662 15.08861211 87319,6917.816,95.436,540.677,538.684,0.0
54063.0,STARLINK-5225,PAYLOAD,2024-05-16 13:05:16,15.08869284,0.0001395,53.2166,76.5308,96.5197,263.5954,0.00025871,3.835e-05,0.0,0 STARLINK-5225,1 54063U 22136N   24137.54532632  .00003835  00000-0  25871-3 0  9994,2 54063  53.2166  76.5308 0001395  96.5197 263.5954 15.08869284 86882,6917.791,95.436,540.621,538.691,0.0
54063.0,STARLINK-5225,PAYLOAD,2024-05-17 03:23:44,15.08841635,0.0001382,53.2168,73.8518,91.2628,268.8522,-0.00014394,-2.578e-05,0.0,0 STARLINK-5225,1 54063U 22136N   24138.14149152 -.00002578  00000-0 -14394-3 0  9995,2 54063  53.2168  73.8518 0001382  91.2628 268.8522 15.08841635 87457,6917.875,95.437,540.696,538.784,0.0
54063.0,STARLINK-5225,PAYLOAD,2024-05-17 12:56:03,15.08863161,0.0001518,53.2167,72.0667,79.8564,280.26,0.00050426,7.751e-05,0.0,0 STARLINK-5225,1 54063U 22136N   24138.53892411  .00007751  00000-0  50426-3 0  9993,2 54063  53.2167  72.0667 0001518  79.8564 280.2600 15.08863161 87514,6917.81,95.436,540.725,538.624,0.0
54063.0,STARLINK-5225,PAYLOAD,2024-05-17 19:17:36,15.08816313,0.0001821,53.2163,70.8793,92.3672,267.7528,-0.00065978,-0.00010766,0.0,0 STARLINK-5225,1 54063U 22136N   24138.80389820 -.00010766  00000-0 -65978-3 0  9998,2 54063  53.2163  70.8793 0001821  92.3672 267.7528 15.08816313 87553,6917.953,95.439,541.078,538.558,0.0
54063.0,STARLINK-5225,PAYLOAD,2024-05-17 22:28:23,15.08814397,0.0001653,53.2168,70.2854,93.3754,266.7427,-0.00061549,-0.00010063,0.0,0 STARLINK-5225,1 54063U 22136N   24138.93637999 -.00010063  00000-0 -61549-3 0  9995,2 54063  53.2168  70.2854 0001653  93.3754 266.7427 15.08814397 87091,6917.959,95.439,540.967,538.68,0.0
54063.0,STARLINK-5225,PAYLOAD,2024-05-18 04:49:55,15.08829956,0.0001508,53.2169,69.0928,98.6983,261.418,-4.1421e-05,-9.47e-06,0.0,0 STARLINK-5225,1 54063U 22136N   24139.20133971 -.00000947  00000-0 -41421-4 0  9995,2 54063  53.2169  69.0928 0001508  98.6983 261.4180 15.08829956 87614,6917.911,95.438,540.819,538.733,0.0
54063.0,STARLINK-5225,PAYLOAD,2024-05-18 12:46:51,15.0884759,0.0001239,53.2154,67.6104,77.4379,282.6752,0.00070293,0.00010919,0.0,0 STARLINK-5225,1 54063U 22136N   24139.53253736  .00010919  00000-0  70293-3 0  9999,2 54063  53.2154  67.6104 0001239  77.4379 282.6752 15.08847590 87662,6917.857,95.437,540.579,538.865,0.0
54063.0,STARLINK-5225,PAYLOAD,2024-05-19 01:29:57,15.08821178,0.0001305,53.2172,65.2286,88.0202,272.094,1.2838e-05,-8.4e-07,0.0,0 STARLINK-5225,1 54063U 22136N   24140.06247033 -.00000084  00000-0  12838-4 0  9997,2 54063  53.2172  65.2286 0001305  88.0202 272.0940 15.08821178 87749,6917.938,95.439,540.706,538.9,0.0
54063.0,STARLINK-5225,PAYLOAD,2024-05-19 18:59:12,15.08840364,0.0001499,53.2165,61.9581,88.0352,272.0812,0.00059135,9.136e-05,0.0,0 STARLINK-5225,1 54063U 22136N   24140.79111372  .00009136  00000-0  59135-3 0  9999,2 54063  53.2165  61.9581 0001499  88.0352 272.0812 15.08840364 87850,6917.879,95.438,540.781,538.707,0.0
54063.0,STARLINK-5225,PAYLOAD,2024-05-20 04:31:31,15.0884276,0.000157,53.2179,60.1725,93.1138,267.0033,0.00063449,9.825e-05,0.0,0 STARLINK-5225,1 54063U 22136N   24141.18855544  .00009825  00000-0  63449-3 0  9997,2 54063  53.2179  60.1725 0001570  93.1138 267.0033 15.08842760 87430,6917.872,95.437,540.823,538.651,0.0
54063.0,STARLINK-5225,PAYLOAD,2024-05-20 23:36:08,15.08843955,0.0001561,53.2183,56.6038,95.5495,264.5675,0.00034477,5.204e-05,0.0,0 STARLINK-5225,1 54063U 22136N   24141.98343620  .00005204  00000-0  34477-3 0  9998,2 54063  53.2183  56.6038 0001561  95.5495 264.5675 15.08843955 88032,6917.868,95.437,540.813,538.653,0.0
54063.0,STARLINK-5225,PAYLOAD,2024-05-21 21:51:32,15.08841626,0.0001445,53.2172,52.44,106.2316,253.8835,0.00015661,2.205e-05,0.0,0 STARLINK-5225,1 54063U 22136N   24142.91079589  .00002205  00000-0  15661-3 0  9994,2 54063  53.2172  52.4400 0001445 106.2316 253.8835 15.08841626 87693,6917.875,95.437,540.74,538.741,0.0
54063.0,STARLINK-5225,PAYLOAD,2024-05-22 04:13:05,15.08839936,0.0001523,53.2177,51.2514,110.7048,249.4107,8.487e-05,1.063e-05,0.0,0 STARLINK-5225,1 54063U 22136N   24143.17575623  .00001063  00000-0  84870-4 0  9993,2 54063  53.2177  51.2514 0001523 110.7048 249.4107 15.08839936 88213,6917.881,95.438,540.799,538.692,0.0
54063.0,STARLINK-5225,PAYLOAD,2024-05-22 21:42:19,15.08841025,0.0001617,53.2176,47.9821,120.7482,239.367,9.0173e-05,1.147e-05,0.0,0 STARLINK-5225,1 54063U 22136N   24143.90439516  .00001147  00000-0  90173-4 0  9990,2 54063  53.2176  47.9821 0001617 120.7482 239.3670 15.08841025 87845,6917.877,95.437,540.861,538.624,0.0
54063.0,STARLINK-5225,PAYLOAD,2024-05-23 04:03:52,15.08841741,0.0001234,53.2173,46.793,92.6871,267.4262,9.4973e-05,1.224e-05,0.0,0 STARLINK-5225,1 54063U 22136N   24144.16935623  .00001224  00000-0  94973-4 0  9997,2 54063  53.2173  46.7930 0001234  92.6871 267.4262 15.08841741 87882,6917.875,95.437,540.594,538.886,0.0
54063.0,STARLINK-5225,PAYLOAD,2024-05-23 21:33:06,15.08842057,0.0001199,53.2175,43.5217,92.475,267.638,8.8063e-05,1.114e-05,0.0,0 STARLINK-5225,1 54063U 22136N   24144.89799595  .00001114  00000-0  88063-4 0  9994,2 54063  53.2175  43.5217 0001199  92.4750 267.6380 15.08842057 87997,6917.874,95.437,540.569,538.91,0.0
54063.0,STARLINK-5225,PAYLOAD,2024-05-24 02:19:15,15.08847465,0.0001261,53.2176,42.6288,94.0835,266.0301,0.00015899,2.244e-05,0.0,0 STARLINK-5225,1 54063U 22136N   24145.09671288  .00002244  00000-0  15899-3 0  9996,2 54063  53.2176  42.6288 0001261  94.0835 266.0301 15.08847465 88500,6917.858,95.437,540.595,538.85,0.0
54063.0,STARLINK-5225,PAYLOAD,2024-05-24 21:23:54,15.08836743,0.0001319,53.2175,39.0608,103.9673,256.1466,2.3564e-06,-2.5e-06,0.0,0 STARLINK-5225,1 54063U 22136N   24145.89159890 -.00000250  00000-0  23564-5 0  9990,2 54063  53.2175  39.0608 0001319 103.9673 256.1466 15.08836743 88621,6917.89,95.438,540.668,538.843,0.0
54063.0,STARLINK-5225,PAYLOAD,2024-05-24 22:59:17,15.08838323,0.0001449,53.2177,38.7659,114.6308,245.4835,-2.1339e-05,-6.28e-06,0.0,0 STARLINK-5225,1 54063U 22136N   24145.95783818 -.00000628  00000-0 -21339-4 0  9997,2 54063  53.2177  38.7659 0001449 114.6308 245.4835 15.08838323 88158,6917.886,95.438,540.753,538.748,0.0
54063.0,STARLINK-5225,PAYLOAD,2024-05-25 10:06:57,15.08874586,0.0001012,53.2177,36.6847,55.3299,304.7789,0.00055416,8.551e-05,0.0,0 STARLINK-5225,1 54063U 22136N   24146.42150115  .00008551  00000-0  55416-3 0  9991,2 54063  53.2177  36.6847 0001012  55.3299 304.7789 15.08874586 88709,6917.775,95.435,540.34,538.94,0.0
